satname,norad_id,inclination_deg,eccentricity,mean_motion_rev_per_day,perigee_km,apogee_km,l1,l2
STARLINK-1365,45590,53.0543,0.0001097,15.06398212,546.4573265682202,547.976749244137,1 45590U 20025BM  25355.54829000 -.00000710  00000+0 -28778-4 0  9995,2 45590  53.0543  97.4067 0001097  86.1392 273.9723 15.06398212313326
STARLINK-1443,45660,53.0551,0.0001205,15.06399218,546.3794498666493,548.0484594467207,1 45660U 20035D   25355.46719956  .00000786  00000+0  71632-4 0  9991,2 45660  53.0551  57.7741 0001205  90.8573 269.2554 15.06399218306942
STARLINK-1446,45663,53.0259,0.0003452,15.38495319,448.2008323980699,452.9153634936911,1 45663U 20035G   25354.29787127  .00050223  00000+0  13041-2 0  9998,2 45663  53.0259  15.4180 0003452  30.8068 329.3137 15.38495319307431
STARLINK-1448,45665,53.0568,0.0001311,15.06426182,546.2234123652925,548.0392177174963,1 45665U 20035J   25355.47087578 -.00004725  00000+0 -29830-3 0  9996,2 45665  53.0568  57.7555 0001311  93.5201 266.5938 15.06426182306930
STARLINK-1451,45668,53.0569,0.000103,15.06409094,546.4703782475826,547.896994308956,1 45668U 20035M   25355.47460894 -.00001211  00000+0 -62402-4 0  9995,2 45668  53.0569  58.0579 0001030  83.2113 276.8994 15.06409094306940
STARLINK-1452,45669,53.0374,0.0003843,15.32310134,466.29049634173316,471.553145751589,1 45669U 20035N   25355.79155706  .00033439  00000+0  10638-2 0  9991,2 45669  53.0374  29.2155 0003843 173.3312 186.7739 15.32310134307370
STARLINK-1453,45670,53.0534,8.4e-05,15.35966697,457.47640534154925,458.624884865927,1 45670U 20035P   25355.91670139  .00161998  00000+0  44738-2 0  9999,2 45670  53.0534  23.2490 0000840  73.9781 322.5226 15.35966697  5791
STARLINK-1454,45671,53.0559,0.0001413,15.06402679,546.2247966102332,548.1818977923513,1 45671U 20035Q   25355.56303455  .00002826  00000+0  20851-3 0  9990,2 45671  53.0559  57.3440 0001413  88.9400 271.1751 15.06402679306949
STARLINK-1456,45673,53.0571,0.0001275,15.26566458,485.21049604531436,486.96087282984536,1 45673U 20035S   25355.91670139  .01000914  00000+0  34739-1 0  9992,2 45673  53.0571  55.0210 0001275  86.1808 333.1702 15.26566458  5852
STARLINK-1457,45674,53.0516,0.0008243,15.49460951,412.699603756545,423.9042129408499,1 45674U 20035T   25355.80868626  .00093714  00000+0  16620-2 0  9990,2 45674  53.0516  44.5094 0008243   2.1775 357.9267 15.49460951307130
STARLINK-1458,45675,53.0545,0.0001433,15.06402451,546.2116446145828,548.1964473583612,1 45675U 20035U   25355.57409448  .00006622  00000+0  46303-3 0  9992,2 45675  53.0545  57.2921 0001433  88.7554 271.3599 15.06402451306929
STARLINK-1460,45676,53.0568,0.0001249,15.06403406,546.3361443274307,548.0660937895718,1 45676U 20035V   25355.61095220  .00001949  00000+0  14967-3 0  9995,2 45676  53.0568  57.1262 0001249  82.8151 277.2980 15.06403406306925
STARLINK-1392,45677,53.0561,0.0001168,15.06393893,546.4213921792125,548.0391579746702,1 45677U 20035W   25355.48932275 -.00000482  00000+0 -13487-4 0  9991,2 45677  53.0561  57.6769 0001168  90.9430 269.1693 15.06393893306947
STARLINK-1394,45679,53.0568,0.0001219,15.25899449,487.2488956657844,488.9228808059361,1 45679U 20035Y   25355.91670139  .01079701  00000+0  38503-1 0  9991,2 45679  53.0568  45.1012 0001219  86.5681  64.5312 15.25899449  5787
STARLINK-1402,45685,53.0543,0.0004873,15.31930538,466.7157367092186,473.3899825464123,1 45685U 20035AE  25355.83243641  .00064267  00000+0  20495-2 0  9995,2 45685  53.0543  30.5693 0004873 342.0742  18.0085 15.31930538307369
STARLINK-1404,45686,53.0554,0.0001245,15.06402521,546.3416265136275,548.0660363806583,1 45686U 20035AF  25355.57869755  .00001921  00000+0  14782-3 0  9998,2 45686  53.0554  47.2749 0001245  82.2898 277.8232 15.06402521307103
STARLINK-1413,45689,53.0568,0.0001404,15.06404766,546.2246339865169,548.1692677599231,1 45689U 20035AJ  25355.53078027  .00003010  00000+0  22084-3 0  9996,2 45689  53.0568  47.4878 0001404  97.4540 262.6608 15.06404766307006
STARLINK-1417,45693,53.0544,0.0002932,15.08021224,540.2181352748757,544.2762485650182,1 45693U 20035AN  25355.84020576  .00011350  00000+0  74637-3 0  9998,2 45693  53.0544  45.9047 0002932  14.8425 345.2650 15.08021224307133
STARLINK-1420,45695,53.0548,0.0001525,15.06395966,546.1678040543229,548.2800391354085,1 45695U 20035AQ  25355.52799602  .00000791  00000+0  71994-4 0  9999,2 45695  53.0548  27.4907 0001525  93.2485 266.8679 15.06395966307373
STARLINK-1422,45696,53.0547,0.0001739,15.0638164,546.0635013656729,548.4721571652917,1 45696U 20035AR  25355.14007911 -.00004838  00000+0 -30626-3 0  9997,2 45696  53.0547  49.2446 0001739 101.7287 258.3897 15.06381640307029
STARLINK-1351,45697,53.0547,0.0001723,15.07773278,541.8133406164234,544.1983664437503,1 45697U 20035AS  25355.91670139  .00069986  00000+0  45006-2 0  9991,2 45697  53.0547  25.7533 0001723  38.8097 347.1270 15.07773278  5781
STARLINK-1398,45699,53.0485,0.0004868,15.61453285,380.16681817974586,386.74990742497084,1 45699U 20035AU  25355.91670139  .00196542  00000+0  22087-2 0  9996,2 45699  53.0485 327.2708 0004868  51.4195  51.3976 15.61453285  5927
STARLINK-1400,45700,53.0559,0.0001462,15.06399758,546.1998135659151,548.224785701128,1 45700U 20035AV  25355.48839077  .00002106  00000+0  16023-3 0  9995,2 45700  53.0559  27.6762 0001462  89.2114 270.9043 15.06399758307360
STARLINK-1403,45701,53.0546,0.0001684,15.06399916,546.0455866456805,548.3780441267018,1 45701U 20035AW  25355.51788147  .00000357  00000+0  42869-4 0  9995,2 45701  53.0546  27.5470 0001684  95.7640 264.3541 15.06399916307360
STARLINK-1407,45703,53.0419,0.0006902,15.45765761,424.4305889623756,433.82733889898554,1 45703U 20035AY  25355.36461561  .00018287  00000+0  37948-3 0  9990,2 45703  53.0419 333.2480 0006902 214.2560 145.8001 15.45765761308123
STARLINK-1411,45706,53.0506,0.0001594,15.49507483,417.08251143886446,419.2491727849301,1 45706U 20035BB  25355.91670139  .00095840  00000+0  16981-2 0  9990,2 45706  53.0506 357.6388 0001594  77.8517 153.2337 15.49507483  5956
STARLINK-1423,45710,53.0555,0.0001352,15.06400793,546.2728207121172,548.1454343049954,1 45710U 20035BF  25355.47733810 -.00000177  00000+0  70116-5 0  9995,2 45710  53.0555  27.7279 0001352  96.3308 263.7835 15.06400793307364
STARLINK-1433,45711,53.0561,0.0001269,15.06394781,546.3487247059493,548.1063822296192,1 45711U 20035BG  25355.79064181  .00002384  00000+0  17891-3 0  9999,2 45711  53.0561  26.3220 0001269  94.9979 265.1155 15.06394781307403
STARLINK-1434,45712,53.0497,0.0001654,15.18975878,507.79534899737064,510.0735922398517,1 45712U 20035BH  25355.45388059  .00015350  00000+0  73858-3 0  9998,2 45712  53.0497  20.1223 0001654 287.2585  72.8228 15.18975878307471
STARLINK-1465,45731,53.0542,0.0001589,15.06400045,546.1109821558211,548.3118578837029,1 45731U 20038B   25355.82381669  .00000576  00000+0  57579-4 0  9990,2 45731  53.0542 226.1701 0001589  92.6390 267.4781 15.06400045304458
STARLINK-1471,45735,53.0496,0.0001515,15.43431207,434.9592234046431,437.0239043595002,1 45735U 20038F   25355.74856485  .00018517  00000+0  41589-3 0  9995,2 45735  53.0496 153.8009 0001515  89.4328 270.6850 15.43431207305472
STARLINK-1474,45738,53.0335,0.0001767,15.77880414,335.2606332762034,337.63356729724364,1 45738U 20038J   25355.70109772  .00113228  00000+0  65230-3 0  9998,2 45738  53.0335 100.1478 0001767  44.7183 315.3979 15.77880414306211
STARLINK-1480,45741,53.0534,0.0001813,15.20574742,502.8580978570917,505.35359911395244,1 45741U 20038M   25355.91670139  .01600803  00000+0  65434-1 0  9990,2 45741  53.0534 225.3010 0001813  83.3603  35.4195 15.20574742  5843
STARLINK-1500,45744,53.037,0.0002456,15.30294062,473.25111733358426,476.61734592255925,1 45744U 20038Q   25355.74597483  .00013110  00000+0  45265-3 0  9994,2 45744  53.0370 197.1134 0002456  63.8687 296.2564 15.30294062304862
STARLINK-1504,45746,53.0266,0.0001619,15.46361108,426.2798460128188,428.48347295476015,1 45746U 20038S   25355.74297058  .00117290  00000+0  23101-2 0  9999,2 45746  53.0266 156.5643 0001619 124.5919 235.5240 15.46361108305428
STARLINK-1506,45747,53.0686,0.0002967,15.23461592,493.3694829195256,497.4482450352107,1 45747U 20038T   25355.85859521  .00014299  00000+0  60482-3 0  9990,2 45747  53.0686 201.6239 0002967  60.3728 299.7563 15.23461592304815
STARLINK-1464,45751,53.0538,0.0001502,15.06400721,546.1691611565057,548.2495351994985,1 45751U 20038X   25355.74088144  .00001140  00000+0  95419-4 0  9998,2 45751  53.0538 206.5433 0001502 102.3467 257.7690 15.06400721304731
STARLINK-1477,45754,53.0512,0.0007121,15.09402187,533.1005422397311,542.9505409314579,1 45754U 20038AA  25355.29899470  .00014579  00000+0  91764-3 0  9991,2 45754  53.0512 207.9077 0007121 117.8713 242.2999 15.09402187304678
STARLINK-1478,45755,53.052,0.0001417,15.06396039,546.2423742485034,548.2050214702758,1 45755U 20038AB  25355.84040743  .00000811  00000+0  73337-4 0  9995,2 45755  53.0520 206.0929 0001417  89.3503 270.7649 15.06396039304736
STARLINK-1484,45756,53.0132,0.0001674,15.71392983,353.78788327432176,356.04210908264304,1 45756U 20038AC  25355.69373039  .00084123  00000+0  64520-3 0  9997,2 45756  53.0132  90.3098 0001674  14.0320 346.0743 15.71392983306341
STARLINK-1493,45759,53.0531,0.0001519,15.06395981,546.1719133048146,548.2758379388288,1 45759U 20038AF  25355.29857086  .00000578  00000+0  57671-4 0  9997,2 45759  53.0531 208.5265 0001519  90.5184 269.5979 15.06395981304652
STARLINK-1494,45760,53.0508,0.0004423,15.56058869,396.07881196209655,402.07393491223866,1 45760U 20038AG  25355.80121595  .00033235  00000+0  47306-3 0  9994,2 45760  53.0508 174.1289 0004423 166.4187 193.6943 15.56058869305199
STARLINK-1502,45764,53.0536,0.0001545,15.06399629,546.1427284721995,548.2826615279546,1 45764U 20038AL  25355.86251579  .00000596  00000+0  58882-4 0  9996,2 45764  53.0536 205.9984 0001545  93.3907 266.7259 15.06399629304759
